{
  "type": "FeatureCollection",
  "features": [
    {
      "type": "Feature",
      "properties": {
        "norad_id": 28890,
        "name": "BEIJING 1",
        "group": "dmc",
        "lat": -28.104151760856844,
        "lon": -72.3303948494,
        "alt_km": 682.9141542609277,
        "timestamp": "2025-12-10T14:53:36.788965+00:00",
        "meta_object_name": "BEIJING 1",
        "meta_object_id": "2005-043A",
        "meta_epoch": "2025-12-10T07:22:53.334336",
        "meta_mean_motion": 14.63361674,
        "meta_eccentricity": 0.00151803,
        "meta_inclination": 98.2657,
        "meta_ra_of_asc_node": 111.8085,
        "meta_arg_of_pericenter": 148.5232,
        "meta_mean_anomaly": 211.6882,
        "meta_ephemeris_type": 0,
        "meta_classification_type": "U",
        "meta_norad_cat_id": 28890,
        "meta_element_set_no": 999,
        "meta_rev_at_epoch": 7302,
        "meta_bstar": 8.9522308e-05,
        "meta_mean_motion_dot": 4.14e-06,
        "meta_mean_motion_ddot": 0,
        "tle_line1": "1 28890U 05043A   25344.30756174  .00000414  00000+0  89522-4 0  9998",
        "tle_line2": "2 28890  98.2657 111.8085 0015180 148.5232 211.6882 14.63361674 73021"
      },
      "geometry": {
        "type": "Point",
        "coordinates": [
          -72.3303948494,
          -28.104151760856844
        ]
      }
    },
    {
      "type": "Feature",
      "properties": {
        "norad_id": 33320,
        "name": "HUANJING 1A (HJ-1A)",
        "group": "dmc",
        "lat": 79.800435338116,
        "lon": -75.36455672361774,
        "alt_km": 600.7211230610746,
        "timestamp": "2025-12-10T14:53:36.788994+00:00",
        "meta_object_name": "HUANJING 1A (HJ-1A)",
        "meta_object_id": "2008-041A",
        "meta_epoch": "2025-12-10T06:25:35.447232",
        "meta_mean_motion": 14.83383307,
        "meta_eccentricity": 0.00203597,
        "meta_inclination": 97.6544,
        "meta_ra_of_asc_node": 332.6693,
        "meta_arg_of_pericenter": 42.1863,
        "meta_mean_anomaly": 318.0914,
        "meta_ephemeris_type": 0,
        "meta_classification_type": "U",
        "meta_norad_cat_id": 33320,
        "meta_element_set_no": 999,
        "meta_rev_at_epoch": 93039,
        "meta_bstar": 0.00038977285,
        "meta_mean_motion_dot": 3.157e-05,
        "meta_mean_motion_ddot": 0,
        "tle_line1": "1 33320U 08041A   25344.26777138  .00003157  00000+0  38977-3 0  9995",
        "tle_line2": "2 33320  97.6544 332.6693 0020359  42.1863 318.0914 14.83383307930393"
      },
      "geometry": {
        "type": "Point",
        "coordinates": [
          -75.36455672361774,
          79.800435338116
        ]
      }
    },
    {
      "type": "Feature",
      "properties": {
        "norad_id": 33321,
        "name": "HUANJING 1B (HJ-1B)",
        "group": "dmc",
        "lat": -51.18099885792402,
        "lon": -13.686232461492974,
        "alt_km": 645.9863564150546,
        "timestamp": "2025-12-10T14:53:36.789007+00:00",
        "meta_object_name": "HUANJING 1B (HJ-1B)",
        "meta_object_id": "2008-041B",
        "meta_epoch": "2025-12-10T07:01:46.965216",
        "meta_mean_motion": 14.82812638,
        "meta_eccentricity": 0.00382897,
        "meta_inclination": 97.64,
        "meta_ra_of_asc_node": 336.3968,
        "meta_arg_of_pericenter": 83.3568,
        "meta_mean_anomaly": 277.2002,
        "meta_ephemeris_type": 0,
        "meta_classification_type": "U",
        "meta_norad_cat_id": 33321,
        "meta_element_set_no": 999,
        "meta_rev_at_epoch": 93041,
        "meta_bstar": 0.00028899851,
        "meta_mean_motion_dot": 2.316e-05,
        "meta_mean_motion_ddot": 0,
        "tle_line1": "1 33321U 08041B   25344.29290469  .00002316  00000+0  28900-3 0  9997",
        "tle_line2": "2 33321  97.6400 336.3968 0038289  83.3568 277.2002 14.82812638930411"
      },
      "geometry": {
        "type": "Point",
        "coordinates": [
          -13.686232461492974,
          -51.18099885792402
        ]
      }
    },
    {
      "type": "Feature",
      "properties": {
        "norad_id": 33446,
        "name": "YAOGAN-4",
        "group": "dmc",
        "lat": -40.677438300173485,
        "lon": 87.87073470379126,
        "alt_km": 630.6870820425138,
        "timestamp": "2025-12-10T14:53:36.789018+00:00",
        "meta_object_name": "YAOGAN-4",
        "meta_object_id": "2008-061A",
        "meta_epoch": "2025-12-10T07:25:11.200224",
        "meta_mean_motion": 14.82670816,
        "meta_eccentricity": 0.00137789,
        "meta_inclination": 97.918,
        "meta_ra_of_asc_node": 274.4323,
        "meta_arg_of_pericenter": 331.6323,
        "meta_mean_anomaly": 28.4138,
        "meta_ephemeris_type": 0,
        "meta_classification_type": "U",
        "meta_norad_cat_id": 33446,
        "meta_element_set_no": 999,
        "meta_rev_at_epoch": 91767,
        "meta_bstar": 0.0003148175,
        "meta_mean_motion_dot": 2.489e-05,
        "meta_mean_motion_ddot": 0,
        "tle_line1": "1 33446U 08061A   25344.30915741  .00002489  00000+0  31482-3 0  9996",
        "tle_line2": "2 33446  97.9180 274.4323 0013778 331.6323  28.4138 14.82670816917677"
      },
      "geometry": {
        "type": "Point",
        "coordinates": [
          87.87073470379126,
          -40.677438300173485
        ]
      }
    },
    {
      "type": "Feature",
      "properties": {
        "norad_id": 35681,
        "name": "DEIMOS-1",
        "group": "dmc",
        "lat": 49.22410287877046,
        "lon": 136.27882905013203,
        "alt_km": 639.2533743037402,
        "timestamp": "2025-12-10T14:53:36.789028+00:00",
        "meta_object_name": "DEIMOS-1",
        "meta_object_id": "2009-041A",
        "meta_epoch": "2025-12-10T06:31:39.347616",
        "meta_mean_motion": 14.74945249,
        "meta_eccentricity": 0.00027547,
        "meta_inclination": 97.7149,
        "meta_ra_of_asc_node": 144.99,
        "meta_arg_of_pericenter": 83.6616,
        "meta_mean_anomaly": 276.4907,
        "meta_ephemeris_type": 0,
        "meta_classification_type": "U",
        "meta_norad_cat_id": 35681,
        "meta_element_set_no": 999,
        "meta_rev_at_epoch": 87903,
        "meta_bstar": 0.00012954051,
        "meta_mean_motion_dot": 8.23e-06,
        "meta_mean_motion_ddot": 0,
        "tle_line1": "1 35681U 09041A   25344.27198319  .00000823  00000+0  12954-3 0  9991",
        "tle_line2": "2 35681  97.7149 144.9900 0002754  83.6616 276.4907 14.74945249879038"
      },
      "geometry": {
        "type": "Point",
        "coordinates": [
          136.27882905013203,
          49.22410287877046
        ]
      }
    },
    {
      "type": "Feature",
      "properties": {
        "norad_id": 35683,
        "name": "UK-DMC 2",
        "group": "dmc",
        "lat": 58.89823665192348,
        "lon": 106.35155730267503,
        "alt_km": 636.7421017010665,
        "timestamp": "2025-12-10T14:53:36.789038+00:00",
        "meta_object_name": "UK-DMC 2",
        "meta_object_id": "2009-041C",
        "meta_epoch": "2025-12-10T08:06:49.555584",
        "meta_mean_motion": 14.75612222,
        "meta_eccentricity": 0.0001387,
        "meta_inclination": 97.8565,
        "meta_ra_of_asc_node": 119.3084,
        "meta_arg_of_pericenter": 97.6641,
        "meta_mean_anomaly": 262.4726,
        "meta_ephemeris_type": 0,
        "meta_classification_type": "U",
        "meta_norad_cat_id": 35683,
        "meta_element_set_no": 999,
        "meta_rev_at_epoch": 87871,
        "meta_bstar": 0.00020244215,
        "meta_mean_motion_dot": 1.332e-05,
        "meta_mean_motion_ddot": 0,
        "tle_line1": "1 35683U 09041C   25344.33807356  .00001332  00000+0  20244-3 0  9995",
        "tle_line2": "2 35683  97.8565 119.3084 0001387  97.6641 262.4726 14.75612222878717"
      },
      "geometry": {
        "type": "Point",
        "coordinates": [
          106.35155730267503,
          58.89823665192348
        ]
      }
    },
    {
      "type": "Feature",
      "properties": {
        "norad_id": 40715,
        "name": "DMC3-FM1",
        "group": "dmc",
        "lat": 33.69740215157086,
        "lon": -153.26536969972867,
        "alt_km": 608.6285802351167,
        "timestamp": "2025-12-10T14:53:36.789048+00:00",
        "meta_object_name": "DMC3-FM1",
        "meta_object_id": "2015-032A",
        "meta_epoch": "2025-12-10T06:39:26.925408",
        "meta_mean_motion": 14.85434758,
        "meta_eccentricity": 0.00048324,
        "meta_inclination": 97.6689,
        "meta_ra_of_asc_node": 211.5593,
        "meta_arg_of_pericenter": 331.7359,
        "meta_mean_anomaly": 28.3594,
        "meta_ephemeris_type": 0,
        "meta_classification_type": "U",
        "meta_norad_cat_id": 40715,
        "meta_element_set_no": 999,
        "meta_rev_at_epoch": 56186,
        "meta_bstar": 0.00016736346,
        "meta_mean_motion_dot": 1.391e-05,
        "meta_mean_motion_ddot": 0,
        "tle_line1": "1 40715U 15032A   25344.27739497  .00001391  00000+0  16736-3 0  9993",
        "tle_line2": "2 40715  97.6689 211.5593 0004832 331.7359  28.3594 14.85434758561864"
      },
      "geometry": {
        "type": "Point",
        "coordinates": [
          -153.26536969972867,
          33.69740215157086
        ]
      }
    },
    {
      "type": "Feature",
      "properties": {
        "norad_id": 40716,
        "name": "DMC3-FM2",
        "group": "dmc",
        "lat": -81.44686980883252,
        "lon": -82.95548177540545,
        "alt_km": 617.6995624858964,
        "timestamp": "2025-12-10T14:53:36.789058+00:00",
        "meta_object_name": "DMC3-FM2",
        "meta_object_id": "2015-032B",
        "meta_epoch": "2025-12-10T05:34:50.832192",
        "meta_mean_motion": 14.85432556,
        "meta_eccentricity": 0.00055816,
        "meta_inclination": 97.6746,
        "meta_ra_of_asc_node": 212.9582,
        "meta_arg_of_pericenter": 336.1297,
        "meta_mean_anomaly": 23.9659,
        "meta_ephemeris_type": 0,
        "meta_classification_type": "U",
        "meta_norad_cat_id": 40716,
        "meta_element_set_no": 999,
        "meta_rev_at_epoch": 56185,
        "meta_bstar": 5.5379567e-05,
        "meta_mean_motion_dot": 4.26e-06,
        "meta_mean_motion_ddot": 0,
        "tle_line1": "1 40716U 15032B   25344.23253278  .00000426  00000+0  55380-4 0  9995",
        "tle_line2": "2 40716  97.6746 212.9582 0005581 336.1297  23.9659 14.85432556561850"
      },
      "geometry": {
        "type": "Point",
        "coordinates": [
          -82.95548177540545,
          -81.44686980883252
        ]
      }
    },
    {
      "type": "Feature",
      "properties": {
        "norad_id": 40717,
        "name": "DMC3-FM3",
        "group": "dmc",
        "lat": 21.32880830415835,
        "lon": 37.983882186378054,
        "alt_km": 615.5852697805858,
        "timestamp": "2025-12-10T14:53:36.789068+00:00",
        "meta_object_name": "DMC3-FM3",
        "meta_object_id": "2015-032C",
        "meta_epoch": "2025-12-10T06:05:57.647616",
        "meta_mean_motion": 14.8542281,
        "meta_eccentricity": 0.0004908,
        "meta_inclination": 97.6799,
        "meta_ra_of_asc_node": 214.6102,
        "meta_arg_of_pericenter": 337.5657,
        "meta_mean_anomaly": 22.5343,
        "meta_ephemeris_type": 0,
        "meta_classification_type": "U",
        "meta_norad_cat_id": 40717,
        "meta_element_set_no": 999,
        "meta_rev_at_epoch": 56186,
        "meta_bstar": 8.4885094e-05,
        "meta_mean_motion_dot": 6.8e-06,
        "meta_mean_motion_ddot": 0,
        "tle_line1": "1 40717U 15032C   25344.25413944  .00000680  00000+0  84885-4 0  9990",
        "tle_line2": "2 40717  97.6799 214.6102 0004908 337.5657  22.5343 14.85422810561861"
      },
      "geometry": {
        "type": "Point",
        "coordinates": [
          37.983882186378054,
          21.32880830415835
        ]
      }
    }
  ]
}